start=new Date('2023-01-19T00:00:00.000Z').valueOf();
sats=[{"INCLINATION":"53.2176","ELEMENT_SET_NO":"999","TIME_SYSTEM":"UTC","APOAPSIS":"540.840","BSTAR":"0.00166970000000","PERIAPSIS":"538.437","OBJECT_TYPE":"PAYLOAD","CENTER_NAME":"EARTH","LAUNCH_DATE":"2022-06-17","SEMIMAJOR_AXIS":"6917.773","EPOCH":"2023-01-18T14:59:45.125376","NORAD_CAT_ID":"52852","OBJECT_NAME":"STARLINK-4184","TLE_LINE2":"2 52852  53.2176 129.0106 0001737  89.6127 270.5064 15.08875029 32901","MEAN_ELEMENT_THEORY":"SGP4","ECCENTRICITY":"0.00017370","REV_AT_EPOCH":"3290","GP_ID":"223456234","RCS_SIZE":"LARGE","CLASSIFICATION_TYPE":"U","COUNTRY_CODE":"US","MEAN_MOTION_DDOT":"0.0000000000000","FILE":"3754254","ARG_OF_PERICENTER":"89.6127","EPHEMERIS_TYPE":"0","RA_OF_ASC_NODE":"129.0106","MEAN_MOTION_DOT":"0.00026411","TLE_LINE1":"1 52852U 22062Y   23018.62482784  .00026411  00000-0  16697-2 0  9994","REF_FRAME":"TEME","DECAY_DATE":null,"MEAN_MOTION":"15.08875029","OBJECT_ID":"2022-062Y","PERIOD":"95.435","MEAN_ANOMALY":"270.5064","SITE":"AFETR"},{"ELEMENT_SET_NO":"999","TIME_SYSTEM":"UTC","INCLINATION":"53.2185","BSTAR":"0.00016383000000","PERIAPSIS":"537.296","OBJECT_TYPE":"PAYLOAD","CENTER_NAME":"EARTH","APOAPSIS":"542.039","EPOCH":"2023-01-18T14:38:32.338464","SEMIMAJOR_AXIS":"6917.803","LAUNCH_DATE":"2022-06-17","COUNTRY_CODE":"US","REV_AT_EPOCH":"3290","RCS_SIZE":"LARGE","GP_ID":"223456984","CLASSIFICATION_TYPE":"U","TLE_LINE2":"2 52853  53.2185 129.0777 0003428  46.2934 313.8342 15.08865367 32904","MEAN_ELEMENT_THEORY":"SGP4","ECCENTRICITY":"0.00034280","NORAD_CAT_ID":"52853","OBJECT_NAME":"STARLINK-4189","FILE":"3754254","ARG_OF_PERICENTER":"46.2934","MEAN_MOTION_DDOT":"0.0000000000000","MEAN_MOTION_DOT":"0.00002321","RA_OF_ASC_NODE":"129.0777","EPHEMERIS_TYPE":"0","OBJECT_ID":"2022-062Z","DECAY_DATE":null,"REF_FRAME":"TEME","MEAN_MOTION":"15.08865367","TLE_LINE1":"1 52853U 22062Z   23018.61009651  .00002321  00000-0  16383-3 0  9999","SITE":"AFETR","MEAN_ANOMALY":"313.8342","PERIOD":"95.436"},{"PERIOD":"95.435","SITE":"AFETR","MEAN_ANOMALY":"288.1876","REF_FRAME":"TEME","DECAY_DATE":null,"MEAN_MOTION":"15.08879829","TLE_LINE1":"1 52854U 22062AA  23018.61379313  .00036932  00000-0  23239-2 0  9997","OBJECT_ID":"2022-062AA","EPHEMERIS_TYPE":"0","RA_OF_ASC_NODE":"129.0629","MEAN_MOTION_DOT":"0.00036932","MEAN_MOTION_DDOT":"0.0000000000000","FILE":"3754254","ARG_OF_PERICENTER":"71.9368","MEAN_ELEMENT_THEORY":"SGP4","TLE_LINE2":"2 52854  53.2161 129.0629 0002320  71.9368 288.1876 15.08879829 32905","ECCENTRICITY":"0.00023200","OBJECT_NAME":"STARLINK-4204","NORAD_CAT_ID":"52854","COUNTRY_CODE":"US","REV_AT_EPOCH":"3290","RCS_SIZE":"LARGE","GP_ID":"223455233","CLASSIFICATION_TYPE":"U","LAUNCH_DATE":"2022-06-17","SEMIMAJOR_AXIS":"6917.759","EPOCH":"2023-01-18T14:43:51.726432","APOAPSIS":"541.229","BSTAR":"0.00232390000000","PERIAPSIS":"538.019","OBJECT_TYPE":"PAYLOAD","CENTER_NAME":"EARTH","ELEMENT_SET_NO":"999","TIME_SYSTEM":"UTC","INCLINATION":"53.2161"},{"TIME_SYSTEM":"UTC","ELEMENT_SET_NO":"999","INCLINATION":"53.2162","APOAPSIS":"541.127","OBJECT_TYPE":"PAYLOAD","PERIAPSIS":"538.256","CENTER_NAME":"EARTH","BSTAR":"0.00031799000000","LAUNCH_DATE":"2022-06-17","EPOCH":"2023-01-18T16:03:19.929024","SEMIMAJOR_AXIS":"6917.827","ECCENTRICITY":"0.00020750","TLE_LINE2":"2 52855  53.2162 128.8050 0002075  71.4481 288.6736 15.08857504 32917","MEAN_ELEMENT_THEORY":"SGP4","OBJECT_NAME":"STARLINK-4209","NORAD_CAT_ID":"52855","COUNTRY_CODE":"US","RCS_SIZE":"LARGE","GP_ID":"223455483","CLASSIFICATION_TYPE":"U","REV_AT_EPOCH":"3291","MEAN_MOTION_DDOT":"0.0000000000000","ARG_OF_PERICENTER":"71.4481","FILE":"3754254","RA_OF_ASC_NODE":"128.8050","EPHEMERIS_TYPE":"0","MEAN_MOTION_DOT":"0.00004779","MEAN_MOTION":"15.08857504","DECAY_DATE":null,"REF_FRAME":"TEME","TLE_LINE1":"1 52855U 22062AB  23018.66898066  .00004779  00000-0  31799-3 0  9999","OBJECT_ID":"2022-062AB","PERIOD":"95.436","SITE":"AFETR","MEAN_ANOMALY":"288.6736"},{"LAUNCH_DATE":"2022-06-17","EPOCH":"2023-01-18T14:33:15.958080","SEMIMAJOR_AXIS":"6917.854","ECCENTRICITY":"0.00016150","TLE_LINE2":"2 52856  53.2163 129.0848 0001615  69.1083 291.0082 15.08848793 32909","MEAN_ELEMENT_THEORY":"SGP4","NORAD_CAT_ID":"52856","OBJECT_NAME":"STARLINK-4201","COUNTRY_CODE":"US","RCS_SIZE":"LARGE","GP_ID":"223424062","CLASSIFICATION_TYPE":"U","REV_AT_EPOCH":"3290","TIME_SYSTEM":"UTC","ELEMENT_SET_NO":"999","INCLINATION":"53.2163","APOAPSIS":"540.836","OBJECT_TYPE":"PAYLOAD","CENTER_NAME":"EARTH","PERIAPSIS":"538.601","BSTAR":"0.00061710000000","MEAN_MOTION":"15.08848793","REF_FRAME":"TEME","DECAY_DATE":null,"TLE_LINE1":"1 52856U 22062AC  23018.60643470  .00009549  00000-0  61710-3 0  9997","OBJECT_ID":"2022-062AC","PERIOD":"95.437","SITE":"AFETR","MEAN_ANOMALY":"291.0082","MEAN_MOTION_DDOT":"0.0000000000000","ARG_OF_PERICENTER":"69.1083","FILE":"3753951","EPHEMERIS_TYPE":"0","RA_OF_ASC_NODE":"129.0848","MEAN_MOTION_DOT":"0.00009549"},{"LAUNCH_DATE":"2022-06-17","EPOCH":"2023-01-18T14:17:21.582816","SEMIMAJOR_AXIS":"6917.792","TLE_LINE2":"2 52857  53.2168 129.1302 0001894  53.0108 307.1058 15.08868850 33392","MEAN_ELEMENT_THEORY":"SGP4","ECCENTRICITY":"0.00018940","NORAD_CAT_ID":"52857","OBJECT_NAME":"STARLINK-4199","COUNTRY_CODE":"US","REV_AT_EPOCH":"3339","CLASSIFICATION_TYPE":"U","GP_ID":"223432144","RCS_SIZE":"LARGE","ELEMENT_SET_NO":"999","TIME_SYSTEM":"UTC","INCLINATION":"53.2168","APOAPSIS":"540.967","BSTAR":"0.00124980000000","OBJECT_TYPE":"PAYLOAD","PERIAPSIS":"538.347","CENTER_NAME":"EARTH","DECAY_DATE":null,"REF_FRAME":"TEME","MEAN_MOTION":"15.08868850","TLE_LINE1":"1 52857U 22062AD  23018.59538869  .00019674  00000-0  12498-2 0  9999","OBJECT_ID":"2022-062AD","PERIOD":"95.436","SITE":"AFETR","MEAN_ANOMALY":"307.1058","MEAN_MOTION_DDOT":"0.0000000000000","FILE":"3754237","ARG_OF_PERICENTER":"53.0108","RA_OF_ASC_NODE":"129.1302","EPHEMERIS_TYPE":"0","MEAN_MOTION_DOT":"0.00019674"},{"MEAN_MOTION_DOT":"0.00002818","EPHEMERIS_TYPE":"0","RA_OF_ASC_NODE":"129.0981","FILE":"3753966","ARG_OF_PERICENTER":"78.4672","MEAN_MOTION_DDOT":"0.0000000000000","SITE":"AFETR","MEAN_ANOMALY":"281.6401","PERIOD":"95.436","OBJECT_ID":"2022-062AE","REF_FRAME":"TEME","DECAY_DATE":null,"MEAN_MOTION":"15.08857893","TLE_LINE1":"1 52858U 22062AE  23018.60369346  .00002818  00000-0  19497-3 0  9993","BSTAR":"0.00019497000000","OBJECT_TYPE":"PAYLOAD","PERIAPSIS":"539.193","CENTER_NAME":"EARTH","APOAPSIS":"540.188","ELEMENT_SET_NO":"999","TIME_SYSTEM":"UTC","INCLINATION":"53.2180","COUNTRY_CODE":"US","REV_AT_EPOCH":"3339","CLASSIFICATION_TYPE":"U","GP_ID":"223426287","RCS_SIZE":"LARGE","TLE_LINE2":"2 52858  53.2180 129.0981 0000719  78.4672 281.6401 15.08857893 33394","MEAN_ELEMENT_THEORY":"SGP4","ECCENTRICITY":"0.00007190","OBJECT_NAME":"STARLINK-4198","NORAD_CAT_ID":"52858","SEMIMAJOR_AXIS":"6917.826","EPOCH":"2023-01-18T14:29:19.114944","LAUNCH_DATE":"2022-06-17"},{"EPHEMERIS_TYPE":"0","RA_OF_ASC_NODE":"129.1458","MEAN_MOTION_DOT":"0.00002667","MEAN_MOTION_DDOT":"0.0000000000000","ARG_OF_PERICENTER":"88.4411","FILE":"3753967","PERIOD":"95.437","SITE":"AFETR","MEAN_ANOMALY":"271.6773","MEAN_MOTION":"15.08849146","DECAY_DATE":null,"REF_FRAME":"TEME","TLE_LINE1":"1 52859U 22062AF  23018.59169714  .00002667  00000-0  18557-3 0  9997","OBJECT_ID":"2022-062AF","APOAPSIS":"540.875","OBJECT_TYPE":"PAYLOAD","PERIAPSIS":"538.560","CENTER_NAME":"EARTH","BSTAR":"0.00018557000000","TIME_SYSTEM":"UTC","ELEMENT_SET_NO":"999","INCLINATION":"53.2183","ECCENTRICITY":"0.00016730","TLE_LINE2":"2 52859  53.2183 129.1458 0001673  88.4411 271.6773 15.08849146 33393","MEAN_ELEMENT_THEORY":"SGP4","NORAD_CAT_ID":"52859","OBJECT_NAME":"STARLINK-4196","COUNTRY_CODE":"US","GP_ID":"223426305","CLASSIFICATION_TYPE":"U","RCS_SIZE":"LARGE","REV_AT_EPOCH":"3339","LAUNCH_DATE":"2022-06-17","SEMIMAJOR_AXIS":"6917.852","EPOCH":"2023-01-18T14:12:02.632896"},{"TLE_LINE1":"1 52860U 22062AG  23018.59907300  .00020828  00000-0  13220-2 0  9990","MEAN_MOTION":"15.08863909","DECAY_DATE":null,"REF_FRAME":"TEME","OBJECT_ID":"2022-062AG","PERIOD":"95.436","MEAN_ANOMALY":"298.2189","SITE":"AFETR","MEAN_MOTION_DDOT":"0.0000000000000","ARG_OF_PERICENTER":"61.9026","FILE":"3754237","RA_OF_ASC_NODE":"129.1255","EPHEMERIS_TYPE":"0","MEAN_MOTION_DOT":"0.00020828","LAUNCH_DATE":"2022-06-17","SEMIMAJOR_AXIS":"6917.807","EPOCH":"2023-01-18T14:22:39.907200","NORAD_CAT_ID":"52860","OBJECT_NAME":"STARLINK-4191","ECCENTRICITY":"0.00022020","TLE_LINE2":"2 52860  53.2175 129.1255 0002202  61.9026 298.2189 15.08863909 33397","MEAN_ELEMENT_THEORY":"SGP4","GP_ID":"223432147","CLASSIFICATION_TYPE":"U","RCS_SIZE":"LARGE","REV_AT_EPOCH":"3339","COUNTRY_CODE":"US","INCLINATION":"53.2175","TIME_SYSTEM":"UTC","ELEMENT_SET_NO":"999","APOAPSIS":"541.196","OBJECT_TYPE":"PAYLOAD","PERIAPSIS":"538.149","CENTER_NAME":"EARTH","BSTAR":"0.00132200000000"},{"LAUNCH_DATE":"2022-06-17","EPOCH":"2023-01-18T13:45:34.015968","SEMIMAJOR_AXIS":"6917.785","NORAD_CAT_ID":"52861","OBJECT_NAME":"STARLINK-4112","TLE_LINE2":"2 52861  53.2151 129.2442 0002144  89.1125 271.0113 15.08871183 33397","MEAN_ELEMENT_THEORY":"SGP4","ECCENTRICITY":"0.00021440","REV_AT_EPOCH":"3339","CLASSIFICATION_TYPE":"U","GP_ID":"223432145","RCS_SIZE":"LARGE","COUNTRY_CODE":"US","INCLINATION":"53.2151","ELEMENT_SET_NO":"999","TIME_SYSTEM":"UTC","APOAPSIS":"541.133","BSTAR":"0.00165700000000","OBJECT_TYPE":"PAYLOAD","PERIAPSIS":"538.167","CENTER_NAME":"EARTH","TLE_LINE1":"1 52861U 22062AH  23018.57331037  .00026205  00000-0  16570-2 0  9993","DECAY_DATE":null,"REF_FRAME":"TEME","MEAN_MOTION":"15.08871183","OBJECT_ID":"2022-062AH","PERIOD":"95.436","MEAN_ANOMALY":"271.0113","SITE":"AFETR","MEAN_MOTION_DDOT":"0.0000000000000","FILE":"3754237","ARG_OF_PERICENTER":"89.1125","EPHEMERIS_TYPE":"0","RA_OF_ASC_NODE":"129.2442","MEAN_MOTION_DOT":"0.00026205"}];
